ONEWEB-0389             
1 50469U 21132A   24356.40696875  .00000130  00000+0  30208-3 0  9997
2 50469  87.9104 114.0036 0002027 101.4030 258.7329 13.17647683146609
ONEWEB-0390             
1 50470U 21132B   24356.40865478  .00000172  00000+0  40871-3 0  9999
2 50470  87.9103 114.0105 0001760 113.7748 246.3568 13.17648192146606
ONEWEB-0391             
1 50471U 21132C   24356.41034227  .00000132  00000+0  30646-3 0  9996
2 50471  87.9110 114.0084 0002614 106.0478 254.0941 13.17647819146601
ONEWEB-0392             
1 50472U 21132D   24356.36479052  .00000097  00000+0  21692-3 0  9991
2 50472  87.9093 113.9909 0002116 102.0138 258.1231 13.17648473146639
ONEWEB-0393             
1 50473U 21132E   24356.26199498  .00000126  00000+0  29037-3 0  9998
2 50473  87.9106 114.0067 0001823 101.6665 258.4671 13.17648781146617
ONEWEB-0394             
1 50474U 21132F   24356.27737775  .00000099  00000+0  21777-3 0  9998
2 50474  87.9104  83.4665 0001841 101.8521 258.2818 13.18685315150040
ONEWEB-0395             
1 50475U 21132G   24356.39179878 -.00000101  00000+0 -32122-3 0  9998
2 50475  87.8897 129.2545 0001814 107.5662 252.5664 13.11419379144579
ONEWEB-0396             
1 50476U 21132H   24356.27105714  .00000128  00000+0  29254-3 0  9993
2 50476  87.9111  83.4736 0001874 100.1490 259.9853 13.18685001150085
ONEWEB-0397             
1 50477U 21132J   24356.28529626  .00000238  00000+0  57018-3 0  9998
2 50477  87.9109  83.4723 0001750  95.9614 264.1717 13.18685841150068
ONEWEB-0398             
1 50478U 21132K   24356.43590168  .00000498  00000+0  13683-2 0  9992
2 50478  87.8894 129.2177 0001661 117.6227 242.5069 13.11419051144473
ONEWEB-0399             
1 50479U 21132L   24356.42232780  .00000004  00000+0 -25026-4 0  9995
2 50479  87.8897 129.2406 0001730  90.1330 269.9997 13.11419805144468
ONEWEB-0400             
1 50480U 21132M   24356.26473274 -.00000078  00000+0 -23106-3 0  9992
2 50480  87.9107  83.4728 0001777 111.9991 248.1330 13.18686421150058
ONEWEB-0401             
1 50481U 21132N   24356.30741197 -.00000171  00000+0 -46602-3 0  9990
2 50481  87.9105  83.4589 0001634  94.6952 265.4366 13.18685715150065
ONEWEB-0402             
1 50482U 21132P   24356.27262514  .00000129  00000+0  29344-3 0  9993
2 50482  87.9106  83.4634 0001544  81.9525 278.1783 13.18684272150086
ONEWEB-0403             
1 50483U 21132Q   24356.22046810  .00000109  00000+0  24328-3 0  9993
2 50483  87.9106  83.4851 0001884 103.8305 256.3037 13.18684846150037
ONEWEB-0404             
1 50484U 21132R   24356.40367538 -.00000432  00000+0 -12556-2 0  9997
2 50484  87.8905 129.2311 0001930  99.7542 260.3804 13.11417624144550
ONEWEB-0405             
1 50485U 21132S   24356.31215547  .00000103  00000+0  22786-3 0  9990
2 50485  87.9106  83.4567 0001720  93.4363 266.6966 13.18685130150447
ONEWEB-0406             
1 50486U 21132T   24356.22521706 -.00000082  00000+0 -24063-3 0  9996
2 50486  87.9108  83.4897 0002337 112.9643 247.1735 13.18686056150063
ONEWEB-0407             
1 50487U 21132U   24356.21889114 -.00000142  00000+0 -39253-3 0  9990
2 50487  87.9104  83.4843 0001771  98.0834 262.0499 13.18686282150006
ONEWEB-0409             
1 50488U 21132V   24356.40198961 -.00000461  00000+0 -13372-2 0  9992
2 50488  87.8894 129.2115 0001817 107.6123 252.5204 13.11415605144443
ONEWEB-0412             
1 50489U 21132W   24356.28369456 -.00000138  00000+0 -38245-3 0  9996
2 50489  87.9109  83.4800 0001600  90.3156 269.8159 13.18686067150109
ONEWEB-0413             
1 50490U 21132X   24356.21255325  .00000176  00000+0  41278-3 0  9990
2 50490  87.9109  83.5065 0001519  93.7722 266.3583 13.18684005150035
ONEWEB-0414             
1 50491U 21132Y   24356.27420867 -.00000237  00000+0 -63513-3 0  9998
2 50491  87.9108  83.4652 0001810  94.2722 265.8617 13.18686343150079
ONEWEB-0417             
1 50492U 21132Z   24356.28211424  .00000122  00000+0  27728-3 0  9996
2 50492  87.9112  83.4796 0001977 104.6963 255.4388 13.18684921150059
ONEWEB-0418             
1 50493U 21132AA  24356.21558598 -.00000282  00000+0 -74803-3 0  9991
2 50493  87.9110  83.4887 0002190 104.8883 255.2492 13.18686139150103
ONEWEB-0419             
1 50494U 21132AB  24356.30899104 -.00000131  00000+0 -36516-3 0  9995
2 50494  87.9104  83.4806 0001958 113.8677 246.2661 13.18685646150032
ONEWEB-0420             
1 50495U 21132AC  24356.27579888  .00000029  00000+0  39751-4 0  9995
2 50495  87.9105  83.4960 0001429 101.9794 258.1498 13.18685469150028
ONEWEB-0421             
1 50496U 21132AD  24356.26947670  .00000126  00000+0  28708-3 0  9990
2 50496  87.9114  83.4769 0001769  93.7691 266.3643 13.18685077150069
ONEWEB-0424             
1 50497U 21132AE  24356.22835435  .00001150  00000+0  28826-2 0  9990
2 50497  87.9159  83.4840 0002124 117.4039 242.7310 13.18704165150086
ONEWEB-0426             
1 50498U 21132AF  24356.26631452  .00000145  00000+0  33426-3 0  9994
2 50498  87.9105  83.4849 0002270  94.6945 265.4446 13.18685546150039
ONEWEB-0427             
1 50499U 21132AG  24356.22679089 -.00000181  00000+0 -49208-3 0  9996
2 50499  87.9105  83.4725 0002000 104.6011 255.5343 13.18685780150058
ONEWEB-0429             
1 50500U 21132AH  24356.21414752 -.00000193  00000+0 -52107-3 0  9997
2 50500  87.9112  83.4927 0001541 103.0224 257.1080 13.18685917150026
ONEWEB-0430             
1 50501U 21132AJ  24356.27895479  .00000021  00000+0  21288-4 0  9998
2 50501  87.9108  83.4780 0001667 116.8752 243.2551 13.18685101150075
ONEWEB-0432             
1 50502U 21132AK  24356.31057515  .00000102  00000+0  22470-3 0  9998
2 50502  87.9106  83.4624 0002613 119.0749 241.0645 13.18685087150033
ONEWEB-0440             
1 50503U 21132AL  24356.52555285  .00000061  00000+0  12224-3 0  9999
2 50503  87.9110  83.4139 0001537  90.0045 270.1263 13.18684484151345
ONEWEB-0450             
1 50504U 21132AM  24356.21586886 -.00000353  00000+0 -92814-3 0  9996
2 50504  87.9109  83.5041 0001394 110.2646 249.8636 13.18688727150047
ONEWEB-0410             
1 51622U 22012A   24356.34959488  .00000083  00000+0  18106-3 0  9992
2 51622  87.9099 113.9904 0003011  93.0261 267.1215 13.17647840142218
ONEWEB-0411             
1 51623U 22012B   24356.41662247  .00000555  00000+0  15547-2 0  9994
2 51623  87.8899 144.3720 0001443 124.8594 235.2669 13.10371149138201
ONEWEB-0415             
1 51624U 22012C   24356.41332271  .00000762  00000+0  21469-2 0  9996
2 51624  87.8895 144.3861 0001456 111.9423 248.1859 13.10372604138207
ONEWEB-0416             
1 51625U 22012D   24356.42491456 -.00000015  00000+0 -80237-4 0  9992
2 51625  87.8898 144.3893 0001536 100.6949 259.4352 13.10371439138245
ONEWEB-0422             
1 51626U 22012E   24356.35973383 -.00000005  00000+0 -45897-4 0  9991
2 51626  87.9099 113.9920 0000839  91.6316 268.4912 13.17649183142322
ONEWEB-0423             
1 51627U 22012F   24356.35297417  .00000100  00000+0  22390-3 0  9995
2 51627  87.9101 113.9969 0001579  98.6864 261.4447 13.17648311142213
ONEWEB-0425             
1 51628U 22012G   24356.43486117 -.00000238  00000+0 -71826-3 0  9994
2 51628  87.8895 144.3648 0001786  89.9205 270.2127 13.10368841138248
ONEWEB-0428             
1 51629U 22012H   24356.41496362  .00000678  00000+0  19065-2 0  9998
2 51629  87.8899 144.3869 0001278 102.4662 257.6608 13.10372124138200
ONEWEB-0431             
1 51630U 22012J   24356.38491711 -.00000483  00000+0 -14186-2 0  9994
2 51630  87.8895 144.3777 0001112 123.0168 237.1066 13.10375428138259
ONEWEB-0434             
1 51631U 22012K   24356.43820117 -.00000348  00000+0 -10342-2 0  9997
2 51631  87.8895 144.3943 0002004  83.9819 276.1536 13.10370846138246
ONEWEB-0435             
1 51632U 22012L   24356.44647780 -.00000733  00000+0 -21357-2 0  9998
2 51632  87.8898 144.3848 0001021  89.4072 270.7172 13.10372245138234
ONEWEB-0436             
1 51633U 22012M   24356.42046599  .00000107  00000+0  24292-3 0  9993
2 51633  87.9098 113.9800 0001374 108.5508 251.5773 13.17652160142206
ONEWEB-0438             
1 51634U 22012N   24356.42989881  .00000009  00000+0 -95674-5 0  9990
2 51634  87.8898 144.3887 0001673  94.5660 265.5658 13.10370564138268
ONEWEB-0439             
1 51635U 22012P   24356.43320258 -.00000137  00000+0 -42895-3 0  9997
2 51635  87.8897 144.3743 0001434  96.8585 263.2705 13.10368746138240
ONEWEB-0442             
1 51636U 22012Q   24356.41288330  .00000141  00000+0  33084-3 0  9993
2 51636  87.9102 114.0229 0002330 103.8691 256.2700 13.17648461142195
ONEWEB-0443             
1 51637U 22012R   24356.35635132  .00000162  00000+0  38338-3 0  9993
2 51637  87.9106 114.0454 0001740  91.3860 268.7471 13.17648106142237
ONEWEB-0444             
1 51638U 22012S   24356.42325800  .00000260  00000+0  70924-3 0  9996
2 51638  87.8893 144.3886 0001343  93.5778 266.5503 13.10369794138251
ONEWEB-0445             
1 51639U 22012T   24356.44481928 -.00000554  00000+0 -16240-2 0  9991
2 51639  87.8888 144.3475 0001660 102.8936 257.2377 13.10371582138267
ONEWEB-0446             
1 51640U 22012U   24356.42160025  .00000436  00000+0  12134-2 0  9998
2 51640  87.8898 144.3938 0001626 107.6515 252.4790 13.10370012138243
ONEWEB-0448             
1 51641U 22012V   24356.42655675  .00000218  00000+0  58801-3 0  9999
2 51641  87.8897 144.3930 0001470  96.2609 263.8686 13.10367810138218
ONEWEB-0449             
1 51642U 22012W   24356.43154825 -.00000013  00000+0 -73119-4 0  9997
2 51642  87.8891 144.3767 0001735  94.4906 265.6420 13.10369816138220
ONEWEB-0451             
1 51643U 22012X   24356.41710920 -.00003232  00000+0 -83619-2 0  9990
2 51643  87.9100 113.9781 0002066 107.9676 252.1680 13.17644114142188
ONEWEB-0452             
1 51644U 22012Y   24356.33947283  .00000021  00000+0  21080-4 0  9993
2 51644  87.9103 114.0412 0001797  92.4574 267.6763 13.17650622142184
